STARLINK-36349          
1 67964U 26038D   26066.58334491 -.01606248  74405-3 -42804-2 0  9990
2 67964  97.2743  76.7045 0001456  88.2743 133.9195 15.94650608  2864
STARLINK-36806          
1 67965U 26038E   26066.58334491 -.01605854  74584-3 -42176-2 0  9993
2 67965  97.2738  76.7076 0001340  96.4262 132.8732 15.94924832  2860
STARLINK-36820          
1 67966U 26038F   26066.58334491 -.01611887  75207-3 -42047-2 0  9997
2 67966  97.2738  76.7091 0001400 101.2916 131.1977 15.95054043  2868
STARLINK-36819          
1 67967U 26038G   26066.58334491 -.01597783  74087-3 -41397-2 0  9998
2 67967  97.2736  76.7105 0001286  97.5549 138.3764 15.95179742  2861
STARLINK-36812          
1 67968U 26038H   26066.58334491 -.01589965  73499-3 -40954-2 0  9996
2 67968  97.2732  76.7113 0001338  98.3765 140.4959 15.95288498  2863
STARLINK-36709          
1 67969U 26038J   26066.58334491 -.01576753  72577-3 -40026-2 0  9994
2 67969  97.2732  76.7145 0001223  97.9927 147.9166 15.95559840  2861
STARLINK-36319          
1 67970U 26038K   26066.58334491 -.01590111  73619-3 -40656-2 0  9997
2 67970  97.2730  76.7128 0001343  93.3310 149.0302 15.95427221  2830
STARLINK-36710          
1 67971U 26038L   26066.58334491 -.01583367  73278-3 -39822-2 0  9997
2 67971  97.2727  76.7164 0001217 102.4857 147.7359 15.95734700  2868
STARLINK-36894          
1 67972U 26038M   26066.58334491 -.01576464  72792-3 -39355-2 0  9999
2 67972  97.2723  76.7178 0001262  93.3945 160.3742 15.95871917  2865
STARLINK-36900          
1 67973U 26038N   26066.58334491 -.01561280  71704-3 -38401-2 0  9993
2 67973  97.2721  76.7206 0001201 105.1910 155.6757 15.96146195  2860
STARLINK-36901          
1 67974U 26038P   26066.58334491 -.01575189  72785-3 -39044-2 0  9991
2 67974  97.2722  76.7190 0001316  96.8564 160.2789 15.96004373  2860
STARLINK-36883          
1 67975U 26038Q   26066.58334491 -.01557226  71795-3 -37137-2 0  9995
2 67975  97.2714  76.7267 0001187  95.1675 180.1053 15.96716917  2867
STARLINK-36880          
1 67976U 26038R   26066.58334491 -.01563575  72010-3 -38162-2 0  9990
2 67976  97.2719  76.7219 0001231  99.2900 165.2053 15.96289700  2865
STARLINK-36904          
1 67977U 26038S   26066.58334491 -.01552783  71304-3 -37323-2 0  9993
2 67977  97.2713  76.7247 0001172  90.3972 181.2618 15.96571654  2863
STARLINK-36364          
1 67978U 26038T   26066.58334491 -.01548660  71326-3 -36248-2 0  9992
2 67978  97.2707  76.7301 0001125  93.1107 190.6374 15.97060185  2863
STARLINK-36359          
1 67979U 26038U   26066.58334491 -.01561174  71897-3 -37854-2 0  9995
2 67979  97.2716  76.7228 0001219 100.2782 167.2409 15.96410839  2868
